OBJECT_NAME,OBJECT_ID,EPOCH,MEAN_MOTION,ECCENTRICITY,INCLINATION,RA_OF_ASC_NODE,ARG_OF_PERICENTER,MEAN_ANOMALY,EPHEMERIS_TYPE,CLASSIFICATION_TYPE,NORAD_CAT_ID,ELEMENT_SET_NO,REV_AT_EPOCH,BSTAR,MEAN_MOTION_DOT,MEAN_MOTION_DDOT
LEMUR-2-ROUNDTRIPPER,2025-009DG,2026-07-02T15:54:38.712384,15.04043156,.0004848,97.7227,266.3214,93.9724,266.2056,0,U,62711,999,7995,.69287E-3,.9531E-4,0
LEMUR-2-MYNAMEISJEFF,2025-009DH,2026-07-02T15:52:22.038816,15.04035905,.0003688,97.7276,266.7104,126.8908,233.2656,0,U,62712,999,7995,.7027E-3,.9665E-4,0
LEMUR-2-LEIA-PHILIP,2025-052AN,2026-07-02T10:33:27.517248,14.97356498,.0004392,97.6813,75.1327,156.0283,204.1144,0,U,63246,999,7095,.17769E-3,.2006E-4,0
LEMUR-2-LIA-MARTIN,2025-052AQ,2026-07-02T15:21:39.464640,14.97926983,.0004686,97.6863,75.8271,122.6554,237.5121,0,U,63248,999,7099,.49698E-3,.5802E-4,0
LEMUR-2-DELOITTE-1,2025-052BB,2026-07-02T10:02:01.089024,14.97706500,.0002511,97.6897,75.9405,67.7482,292.4006,0,U,63259,999,7097,.37152E-3,.4296E-4,0
LEMUR-2-EMERSONROSE,2025-052BD,2026-07-02T15:29:09.631104,14.99195276,.0002502,97.6867,76.7500,76.9084,283.2418,0,U,63261,999,7105,.43236E-3,.5208E-4,0
LEMUR-2-MARACHE-FRAN,2025-052BE,2026-07-02T16:14:19.770144,15.00234829,.000433,97.6891,77.1310,313.7658,46.3207,0,U,63262,999,7108,.42213E-3,.5224E-4,0
LEMUR-2-THEFALCONER,2025-052BG,2026-07-02T12:19:29.469792,14.97488536,.0001154,97.6840,75.6367,25.8688,334.2592,0,U,63264,999,7098,.42529E-3,.4899E-4,0
LEMUR-2-UNTITLED-SC,2025-061A,2026-07-02T16:35:32.349696,15.13576910,.0017905,97.5644,158.9412,206.6413,153.3900,0,U,63351,999,6993,.24444E-3,.4335E-4,0
LEMUR-2-ESPERANZA,2025-061B,2026-07-02T16:01:15.763584,15.13670577,.0017504,97.5653,159.0146,205.7921,154.2440,0,U,63352,999,6993,.24504E-3,.4356E-4,0
LEMUR-2-KREMPEL-BRO2,2025-061C,2026-07-02T16:33:40.041792,15.14107661,.0018655,97.5699,159.5902,198.2547,161.8017,0,U,63353,999,6995,.24787E-3,.4465E-4,0
LEMUR-2-THERMORAPTOR,2025-061D,2026-07-02T16:06:39.365280,15.14192332,.0018372,97.5705,159.6501,197.0884,162.9731,0,U,63354,999,6995,.25893E-3,.4677E-4,0
LEMUR-2-NEUROSPICY,2025-061E,2026-07-02T10:38:41.802432,15.14306072,.0016114,97.5629,159.0381,200.8078,159.2500,0,U,63355,999,6992,.22402E-3,.4047E-4,0
LEMUR-2-TILLINFINITY,2025-061F,2026-07-02T16:06:21.604896,15.14892799,.0017716,97.5617,159.5656,188.1944,171.9001,0,U,63356,999,6998,.25117E-3,.4625E-4,0
LEMUR-2-KREMPEL-BRO1,2025-061G,2026-07-02T18:41:16.275840,15.14699393,.0018334,97.5618,159.5841,189.2917,170.7978,0,U,63357,999,6999,.22146E-3,.4049E-4,0
LEMUR-2-LANGER2SPACE,2025-061H,2026-07-02T16:13:38.234208,15.14393477,.0016074,97.5623,159.2900,198.2780,161.7876,0,U,63358,999,6996,.25615E-3,.4649E-4,0
LEMUR-2-BALTO,2025-052BH,2026-07-02T15:52:15.290112,15.00256925,.0006084,97.6925,77.0925,14.6561,345.4837,0,U,63395,999,7108,.53413E-3,.6632E-4,0
LEMUR-2-KRISH,2025-135AK,2026-07-02T07:43:14.766816,14.96342206,.0001401,97.7757,298.0944,107.1377,252.9998,0,U,64561,999,5618,.55146E-3,.6184E-4,0
LEMUR-2-HUBBLE-4,2025-135AP,2026-07-02T13:07:37.877088,14.93656519,.0001545,97.7710,297.2716,200.2756,159.8403,0,U,64565,999,5616,.18795E-3,.1929E-4,0
LEMUR-2-SEJONG-2,2025-135BL,2026-07-02T17:56:56.719680,14.96832546,.0002741,97.7719,298.6636,274.3996,85.6912,0,U,64586,999,5627,.473E-3,.5363E-4,0
LEMUR-2-HUBBLE-5,2025-135BT,2026-07-02T18:16:04.756224,14.94183906,.0004112,97.7732,298.1391,291.4714,68.6067,0,U,64840,999,5623,.14252E-3,.1469E-4,0
LEMUR-2-KARENDARRELL,2025-135BU,2026-07-02T14:12:51.449760,15.00343923,.0011149,97.7696,299.7762,145.6467,214.5479,0,U,64841,999,5632,.73699E-3,.9205E-4,0
LEMUR-2-LUCILLE-ROSE,2025-135BV,2026-07-02T13:34:35.565024,15.00348433,.001321,97.7740,299.7827,228.4002,131.6090,0,U,65403,999,5094,.63455E-3,.7921E-4,0
LEMUR-2-AFFIE-WAUWIE,2025-248C,2026-07-02T14:54:33.866784,15.27806899,.000824,45.3935,31.3325,184.8356,175.2454,0,U,66295,999,3695,.82533E-3,.22617E-3,0
LEMUR-2-DEANANDMAEVE,2025-276N,2026-07-02T04:39:52.884576,15.19917633,.00044246,97.4208,256.4220,315.6162,44.4718,0,U,66678,999,3269,.35220213E-3,.7503E-4,0
LEMUR-2-STAS-GORBUK,2025-276W,2026-07-02T16:09:43.714368,15.19544822,.0003659,97.4241,256.9468,312.5250,47.5675,0,U,66686,999,3276,.3241E-3,.6824E-4,0
LEMUR-2-TEODOR,2025-276DG,2026-07-02T12:12:27.400608,15.21218275,.0002372,97.4148,257.0404,101.2671,258.8831,0,U,66768,999,3277,.30971E-3,.6844E-4,0
LEMUR-2-LAILA,2025-276DQ,2026-07-02T05:12:50.482080,15.21439154,.0002835,97.4169,256.8837,114.0057,246.1475,0,U,66776,999,3273,.33128E-3,.7374E-4,0
LEMUR-2-CELIJO-SB-PK,2025-276DW,2026-07-02T10:41:37.978944,15.00160507,.0007767,97.5214,253.7211,95.7431,264.4679,0,U,66781,999,2491,.61945E-3,.7687E-4,0
LEMUR-2-FINNIAN,2025-276DX,2026-07-01T22:50:41.684640,15.00493510,.0008478,97.5330,253.4795,45.8769,314.3151,0,U,66782,999,2221,.26643607E-3,.3301E-4,0
